STARLINK-1347_new
1 15586C 20025BH  21326.16508429  .00000702  00000-0  47033-4 0  3260
2 15586  53.0552 277.9901 0001535  71.4762 256.6409 15.06390534    15
STARLINK-1347_old
1 25586C 20025BH  21325.12047538  .00002037  00000-0  13646-3 0  3258
2 25586  53.0554 282.6791 0001597  70.7842 349.1999 15.06403412    18
